IRIDIUM 38              
1 25043U 97069E   25178.60579210  .00000253  00000+0  76895-4 0  9996
2 25043  86.3959 228.7729 0004144  79.6875 280.4790 14.38123662447458
IRIDIUM 42              
1 25077U 97077A   25179.18210546  .00000287  00000+0  91247-4 0  9995
2 25077  86.3960 234.7134 0003072  89.4746 270.6803 14.36359133442777
IRIDIUM 44              
1 25078U 97077B   25179.17635688  .00000227  00000+0  65455-4 0  9999
2 25078  86.3965 216.6148 0002764  48.9189 311.2249 14.40248187445315
IRIDIUM 45              
1 25104U 97082A   25179.09768234  .00009284  00000+0  33153-3 0  9991
2 25104  86.3571  42.5938 0113542 291.2501  67.6647 15.22671164453958
IRIDIUM 24              
1 25105U 97082B   25179.20474026  .00000336  00000+0  96079-4 0  9994
2 25105  86.3896  75.6282 0013115  48.5435 311.6889 14.42107073445058
IRIDIUM 51              
1 25262U 98018A   25178.88249893  .00021244  00000+0  46390-3 0  9994
2 25262  86.3818  50.5351 0084282 207.3978 152.2821 15.40260470448671
